FENGYUN 1C DEB          
1 31893U 99025CKU 17345.25049861  .00000107  00000-0  30798-4 0  9993
2 31893  99.1136 358.1188 0196202 190.1595 232.6704 14.55906392558128
